1 22782U 93055A   95055.92878369 0.00000028  00000+0  20131-4 0  3836
2 22782  82.5496   6.1509 0020653 237.5481 122.3677 13.83026027 75028
1 22782U 93055A   95056.86928171 0.00000038  00000+0  28973-4 0  3874
2 22782  82.5496   5.4056 0020656 234.8233 125.0988 13.83026182 75156
1 22782U 93055A   95057.88212605 0.00000036  00000+0  27913-4 0  3922
2 22782  82.5498   4.6034 0020676 231.6620 128.2678 13.83026228 75299
1 22782U 93055A   95059.18435431 0.00000030  00000+0  22428-4 0  3998
2 22782  82.5501   3.5719 0020725 227.5945 132.3447 13.83026255 75471
1 22782U 93055A   95060.26954473 0.00000053  00000+0  43086-4 0  4024
2 22782  82.5500   2.7119 0020740 224.3050 135.6458 13.83026554 75621
1 22782U 93055A   95060.34189058  .00000062  00000-0  43629-4 0  3834
2 22782  82.5499   2.6545 0020747 224.0474 135.9034 13.83026565 75630
1 22782U          95060.34189058 0.00000062  00000+0  43629-4 0  3831
2 22782  82.5499   2.6545 0020747 224.0474 135.9034 13.83026565 75630
1 22782U 93055A   95060.84831262 0.00000049  00000+0  39439-4 0  3850
2 22782  82.5499   2.2530 0020751 222.5494 137.4045 13.83026562 75704
1 22782U 93055A   95061.86115729 0.00000046  00000+0  36592-4 0  3894
2 22782  82.5520   1.4511 0020935 219.0840 140.8819 13.83026722 75849
1 22782U 93055A   95063.23573170 0.00000045  00000+0  36235-4 0  3966
2 22782  82.5528   0.3628 0020961 215.0540 144.9242 13.83026835 76038
1 22782U 93055A   95063.88684600 0.00000042  00000+0  33449-4 0  3992
2 22782  82.5526 359.8468 0020975 213.1692 146.8150 13.83026840 76127
1 22782U 93055A   95064.82734449  .00000049  00000-0  30870-4 0  3841
2 22782  82.5525 359.1019 0020985 210.4888 149.5047 13.83026871 76252
1 22782U 93055A   95064.82734450 0.00000040  00000+0  30869-4 0  4033
2 22782  82.5525 359.1018 0020985 210.4888 149.5047 13.83026871 76251
1 22782U 93055A   95066.20191956 0.00000035  00000+0  26773-4 0  3891
2 22782  82.5530 358.0134 0021034 206.3755 153.6338 13.83026912 76443
1 22782U 93055A   95067.21476437 0.00000030  00000+0  21403-4 0  3950
2 22782  82.5527 357.2108 0021123 203.2680 156.7531 13.83026892 76584
1 22782U 93055A   95068.15526268 0.00000031  00000+0  22818-4 0  3987
2 22782  82.5525 356.4656 0021160 200.5519 159.4787 13.83026953 76719
1 22782U 93055A   95068.73403092 0.00000041  00000+0  32294-4 0  4015
2 22782  82.5525 356.0071 0021193 198.8398 161.1984 13.83027099 76795
1 22782U 93055A   95069.31279898  .00000054  00000-0  35994-4 0  3851
2 22782  82.5524 355.5487 0021212 197.1620 162.8823 13.83027183 76874
1 22782U          95069.31279898 0.00000054  00000+0  35994-4 0  3858
2 22782  82.5524 355.5487 0021212 197.1620 162.8823 13.83027183 76874
1 22782U 93055A   95070.25329775 0.00000045  00000+0  35590-4 0  3903
2 22782  82.5523 354.8033 0021292 194.2762 165.7808 13.83027241 77001
1 22782U 93055A   95071.12144979 0.00000049  00000+0  39224-4 0  3936
2 22782  82.5524 354.1158 0021317 191.8267 168.2392 13.83027361 77126
1 22782U 93055A   95072.13429319 0.00000075  00000+0  62831-4 0  4000
2 22782  82.5519 353.3125 0021463 188.9873 171.0903 13.83027751 77265
1 22782U 93055A   95073.29182959 0.00000065  00000+0  53809-4 0  4064
2 22782  82.5521 352.3958 0021588 185.5542 174.5380 13.83027797 77420
1 22782U 93055A   95073.79825163  .00000072  00000-0  51935-4 0  3864
2 22782  82.5521 351.9946 0021579 184.1306 175.9672 13.83027836 77495
1 22782U 93055A   95074.15998199 0.00000056  00000+0  45249-4 0  3890
2 22782  82.5523 351.7083 0021679 182.9835 177.1201 13.83027801 77541
1 22782U 93055A   95075.17282604 0.00000060  00000+0  49566-4 0  3576
2 22782  82.5523 350.9060 0021759 180.0170 180.0996 13.83027959 77680
1 22782U 93055A   95076.18567042 0.00000048  00000+0  39271-4 0  3994
2 22782  82.5523 350.1037 0021887 177.0215 183.1085 13.83027941 77824
1 22782U 93055A   95078.21135837  .00000066  00000-0  46512-4 0  3877
2 22782  82.5524 348.4994 0022094 171.1355 189.0207 13.83028189 78106
1 22782U 93055A   95078.21135837 0.00000057  00000+0  46511-4 0  3875
2 22782  82.5524 348.4993 0022094 171.1355 189.0207 13.83028189 78105
1 22782U 93055A   95079.15185502 0.00000087  00000+0  74046-4 0  3948
2 22782  82.5525 347.7543 0022119 168.7554 191.4102 13.83028650 78238
1 22782U 93055A   95080.23704468 0.00000075  00000+0  62687-4 0  3997
2 22782  82.5524 346.8947 0022242 165.6576 194.5211 13.83028677 78382
1 22782U 93055A   95081.24988839 0.00000071  00000+0  59886-4 0  4056
2 22782  82.5523 346.0922 0022321 162.7860 197.4060 13.83028782 78525
1 22782U 93055A   95082.19038592 0.00000080  00000+0  67387-4 0  4081
2 22782  82.5521 345.3468 0022301 160.1390 200.0652 13.83028988 78658
1 22782U 93055A   95082.76915299  .00000097  00000-0  74739-4 0  3887
2 22782  82.5520 344.8885 0022245 158.5123 201.6970 13.83029164 78732
1 22782U          95082.76915299 0.00000097  00000+0  74739-4 0  3884
2 22782  82.5520 344.8885 0022245 158.5123 201.6970 13.83029164 78732
1 22782U 93055A   95083.20322863 0.00000088  00000+0  75181-4 0  3900
2 22782  82.5520 344.5445 0022243 157.2913 202.9231 13.83029240 78797
1 22782U 93055A   95083.78199612 0.00000089  00000+0  76212-4 0  3948
2 22782  82.5519 344.0860 0022309 155.6628 204.5591 13.83029336 78871
1 22782U 93055A   95085.15656851 0.00000092  00000+0  78670-4 0  3960
2 22782  82.5519 342.9972 0022348 151.8131 208.4246 13.83029593 79069
1 22782U 93055A   95086.09706604 0.00000066  00000+0  54746-4 0  3998
2 22782  82.5519 342.2522 0022491 149.1570 211.0924 13.83029459 79197
1 22782U 93055A   95087.18225732  .00000007  00000-0 -77053-5 0  3890
2 22782  82.5524 341.3934 0022943 145.7805 214.4841 13.83028654 79343
1 22782U 93055A   95087.18225732 -.00000002  00000+0 -77053-5 0  4032
2 22782  82.5524 341.3933 0022943 145.7805 214.4841 13.83028654 79342
1 22782U 93055A   95088.19509846 0.00000064  00000+0  53089-4 0  3953
2 22782  82.5522 340.5908 0023025 143.0226 217.2526 13.83029404 79483
1 22782U 93055A   95088.62917389 0.00000070  00000+0  58327-4 0  3964
2 22782  82.5522 340.2469 0022987 141.7849 218.4951 13.83029516 79540
1 22782U 93055A   95090.14843739 0.00000064  00000+0  53311-4 0  4008
2 22782  82.5521 339.0433 0023066 137.6027 222.6911 13.83029642 79753
1 22782U 93055A   95091.16127823 0.00000112  00000+0  96364-4 0  4054
2 22782  82.5520 338.2408 0022981 134.5853 225.7168 13.83030295 79892
1 22782U 93055A   95091.74004532  .00000114  00000-0  90482-4 0  3900
2 22782  82.5520 337.7825 0023009 132.9441 227.3643 13.83030345 79977
1 22782U          95091.74004532 0.00000114  00000+0  90482-4 0  3907
2 22782  82.5520 337.7825 0023009 132.9441 227.3643 13.83030345 79977
1 22782U 93055A   95092.17412172 0.00000050  00000+0  40296-4 0  3929
2 22782  82.5519 337.4380 0023262 132.1512 228.1631 13.83029819 80039
1 22782U 93055A   95093.11461815 0.00000042  00000+0  33297-4 0  3960
2 22782  82.5518 336.6927 0023360 129.5859 230.7375 13.83029812 80160
1 22782U 93055A   95094.12745999 0.00000047  00000+0  37749-4 0  4018
2 22782  82.5516 335.8899 0023455 126.8927 233.4398 13.83029930 80300
1 22782U 93055A   95095.14030074 0.00000075  00000+0  63220-4 0  4072
2 22782  82.5514 335.0874 0023474 124.0581 236.2806 13.83030313 80447
1 22782U 93055A   95096.00845065  .00000077  00000-0  56516-4 0  3917
2 22782  82.5515 334.4000 0023538 121.6711 238.6744 13.83030352 80564
1 22782U 93055A   95096.00845065 0.00000068  00000+0  56515-4 0  4095
2 22782  82.5515 334.3999 0023538 121.6710 238.6744 13.83030353 80560
1 22782U 93055A   95097.02129155 0.00000065  00000+0  53428-4 0  3943
2 22782  82.5517 333.5979 0023567 118.9537 241.3974 13.83030454 80703
1 22782U 93055A   95098.10647882 0.00000046  00000+0  37214-4 0  3994
2 22782  82.5516 332.7379 0023578 116.0567 244.3018 13.83030399 80857
1 22782U 93055A   95099.11931967 0.00000053  00000+0  42649-4 0  4061
2 22782  82.5513 331.9347 0023674 113.4655 246.8997 13.83030542 80994
1 22782U 93055A   95100.05981442  .00000068  00000-0  48781-4 0  3924
2 22782  82.5513 331.1898 0023666 110.8573 249.5126 13.83030704 81128
1 22782U 93055A   95100.05981442 0.00000059  00000+0  48780-4 0  4080
2 22782  82.5513 331.1897 0023666 110.8573 249.5126 13.83030704 81127
1 22782U 93055A   95101.14500103 0.00000037  00000+0  28509-4 0  3972
2 22782  82.5515 330.3304 0023700 107.9124 252.4620 13.83030583 81274
1 22782U 93055A   95103.09833588 0.00000038  00000+0  28803-4 0  4007
2 22782  82.5512 328.7822 0023722 102.5906 257.7900 13.83030708 81548
1 22782U 93055A   95104.11117702  .00000012  00000-0 -26559-5 0  3936
2 22782  82.5511 327.9797 0023849 100.2631 260.1223 13.83030371 81686
1 22782U 93055A   95104.11117702 0.00000003  00000+0 -26559-5 0  4048
2 22782  82.5511 327.9796 0023849 100.2631 260.1223 13.83030371 81685
1 22782U 93055A   95105.05167206 -.00000003  00000+0 -85240-5 0  3969
2 22782  82.5512 327.2346 0023973  97.9515 262.4383 13.83030275 81811
1 22782U 93055A   95106.06451165 0.00000025  00000+0  17100-4 0  3669
2 22782  82.5518 326.4322 0023925  95.1706 265.2204 13.83030543 81957
1 22782U 93055A   95106.64327673 0.00000026  00000+0  18594-4 0  4007
2 22782  82.5513 325.9732 0023873  93.4307 266.9580 13.83030583 82030
1 22782U 93055A   95108.09019122 0.00000022  00000+0  15160-4 0  4041
2 22782  82.5507 324.8263 0023944  89.7241 270.6682 13.83030579 82236
1 22782U 93055A   95109.03068471 0.00000041  00000+0  31439-4 0  4067
2 22782  82.5511 324.0816 0023984  87.2355 273.1579 13.83030843 82361
1 22782U 93055A   95109.10302976  .00000051  00000-0  32985-4 0  3941
2 22782  82.5509 324.0242 0023996  87.1019 273.2890 13.83030866 82373
1 22782U          95109.10302976 0.00000051  00000+0  32985-4 0  3948
2 22782  82.5509 324.0242 0023996  87.1019 273.2890 13.83030866 82373
1 22782U 93055A   95110.04352371 0.00000041  00000+0  32332-4 0  3977
2 22782  82.5503 323.2782 0024036  84.6697 275.7224 13.83030917 82507
